STARLINK-31736          
1 59547U 24074P   26068.09466869 -.00003520  00000+0 -11846-3 0  9991
2 59547  43.0078 339.9225 0001472 268.2918  91.7765 15.27578592106000
FLOCK 4G-5              
1 62663U 25009BG  26068.45638436  .00011278  00000+0  40688-3 0  9997
2 62663  97.4058 151.2478 0002094 314.5072  45.5996 15.28679529 63699
